0 COSMOS 1932 DEB
1 28275U 88019F   22335.28893622  .00000078  00000-0  15211-3 0  9993
2 28275  65.0422 166.6072 0057116 295.2559 239.9744 13.81944409952388
